[{"OBJECT_NAME":"LEMUR-2-FURIAUS","OBJECT_ID":"2017-042R","EPOCH":"2026-03-09T23:04:27.745536","MEAN_MOTION":15.26272951,"ECCENTRICITY":0.00075374,"INCLINATION":97.3753,"RA_OF_ASC_NODE":248.499,"ARG_OF_PERICENTER":55.8686,"MEAN_ANOMALY":304.3266,"EPHEMERIS_TYPE":0,"CLASSIFICATION_TYPE":"U","NORAD_CAT_ID":42840,"ELEMENT_SET_NO":999,"REV_AT_EPOCH":47305,"BSTAR":0.00099966194,"MEAN_MOTION_DOT":0.00025928,"MEAN_MOTION_DDOT":0},{"OBJECT_NAME":"STARLINK-31363","OBJECT_ID":"2024-093A","EPOCH":"2026-03-09T16:49:05.556864","MEAN_MOTION":15.2756469,"ECCENTRICITY":0.00011059,"INCLINATION":43.0027,"RA_OF_ASC_NODE":205.6275,"ARG_OF_PERICENTER":210.0856,"MEAN_ANOMALY":149.9932,"EPHEMERIS_TYPE":0,"CLASSIFICATION_TYPE":"U","NORAD_CAT_ID":59782,"ELEMENT_SET_NO":999,"REV_AT_EPOCH":10273,"BSTAR":-6.8521965e-5,"MEAN_MOTION_DOT":-2.146e-5,"MEAN_MOTION_DDOT":0}]
